{"type": "FeatureCollection", "features": [ {"type": "Feature", "properties": {"norad_id": 66377, "name": "CZ-11 DEB", "group": "last-30-days", "lat": 35.8271181253319, "lon": -116.78456159973179, "alt_km": 421.8671690402434, "timestamp": "2025-12-05T22:40:47.340306+00:00", "meta": {"OBJECT_NAME": "CZ-11 DEB", "OBJECT_ID": "2025-255B", "EPOCH": "2025-12-05T03:49:57.444960", "MEAN_MOTION": 15.43766179, "ECCENTRICITY": 0.00138166, "INCLINATION": 52.9949, "RA_OF_ASC_NODE": 213.9635, "ARG_OF_PERICENTER": 16.3255, "MEAN_ANOMALY": 343.8192, "EPHEMERIS_TYPE": 0, "CLASSIFICATION_TYPE": "U", "NORAD_CAT_ID": 66377, "ELEMENT_SET_NO": 999, "REV_AT_EPOCH": 404, "BSTAR": 0.0013050272, "MEAN_MOTION_DOT": 0.00060195, "MEAN_MOTION_DDOT": 0}, "tle": {"line1": "1 66377U 25255B   25339.15969265  .00060195  00000+0  13050-2 0  9994", "line2": "2 66377  52.9949 213.9635 0013816  16.3255 343.8192 15.43766179  4046"}}, "geometry": {"type": "Point", "coordinates": [-116.78456159973179, 35.8271181253319]}}, {"type": "Feature", "properties": {"norad_id": 66378, "name": "SHIYAN-32 02", "group": "last-30-days", "lat": 52.06088388829968, "lon": -74.47518848986013, "alt_km": 422.50792655933583, "timestamp": "2025-12-05T22:40:47.340317+00:00", "meta": {"OBJECT_NAME": "SHIYAN-32 02", "OBJECT_ID": "2025-255C", "EPOCH": "2025-12-05T17:40:19.394112", "MEAN_MOTION": 15.44450072, "ECCENTRICITY": 0.0012207, "INCLINATION": 52.9929, "RA_OF_ASC_NODE": 211.1536, "ARG_OF_PERICENTER": 14.422, "MEAN_ANOMALY": 345.7131, "EPHEMERIS_TYPE": 0, "CLASSIFICATION_TYPE": "U", "NORAD_CAT_ID": 66378, "ELEMENT_SET_NO": 999, "REV_AT_EPOCH": 413, "BSTAR": 0.0014477, "MEAN_MOTION_DOT": 0.00068417, "MEAN_MOTION_DDOT": 0}, "tle": {"line1": "1 66378U 25255C   25339.73633558  .00068417  00000+0  14477-2 0  9991", "line2": "2 66378  52.9929 211.1536 0012207  14.4220 345.7131 15.44450072  4136"}}, "geometry": {"type": "Point", "coordinates": [-74.47518848986013, 52.06088388829968]}}, {"type": "Feature", "properties": {"norad_id": 66379, "name": "SHIYAN-32 03", "group": "last-30-days", "lat": 2.7830293161351447, "lon": -147.58557805071, "alt_km": 428.3886996392803, "timestamp": "2025-12-05T22:40:47.340327+00:00", "meta": {"OBJECT_NAME": "SHIYAN-32 03", "OBJECT_ID": "2025-255D", "EPOCH": "2025-12-05T18:00:02.058048", "MEAN_MOTION": 15.42771593, "ECCENTRICITY": 0.001552, "INCLINATION": 52.9955, "RA_OF_ASC_NODE": 211.2402, "ARG_OF_PERICENTER": 21.4514, "MEAN_ANOMALY": 338.7138, "EPHEMERIS_TYPE": 0, "CLASSIFICATION_TYPE": "U", "NORAD_CAT_ID": 66379, "ELEMENT_SET_NO": 999, "REV_AT_EPOCH": 415, "BSTAR": 0.00055719, "MEAN_MOTION_DOT": 0.00024512, "MEAN_MOTION_DDOT": 0}, "tle": {"line1": "1 66379U 25255D   25339.75002382  .00024512  00000+0  55719-3 0  9992", "line2": "2 66379  52.9955 211.2402 0015520  21.4514 338.7138 15.42771593  4157"}}, "geometry": {"type": "Point", "coordinates": [-147.58557805071, 2.7830293161351447]}}, {"type": "Feature", "properties": {"norad_id": 66380, "name": "STARLINK-35139", "group": "last-30-days", "lat": -52.04798079002627, "lon": -137.32957478299684, "alt_km": 453.064661343582, "timestamp": "2025-12-05T22:40:47.340337+00:00", "meta": {"OBJECT_NAME": "STARLINK-35139", "OBJECT_ID": "2025-257A", "EPOCH": "2025-12-05T06:00:02.000160", "MEAN_MOTION": 15.39580895, "ECCENTRICITY": 0.00018883, "INCLINATION": 53.1596, "RA_OF_ASC_NODE": 299.9469, "ARG_OF_PERICENTER": 96.7559, "MEAN_ANOMALY": 288.8357, "EPHEMERIS_TYPE": 0, "CLASSIFICATION_TYPE": "U", "NORAD_CAT_ID": 66380, "ELEMENT_SET_NO": 999, "REV_AT_EPOCH": 523, "BSTAR": 0.0021972198, "MEAN_MOTION_DOT": 0.000884, "MEAN_MOTION_DDOT": 0}, "tle": {"line1": "1 66380U 25257A   25339.25002315  .00088400  00000+0  21972-2 0  9996", "line2": "2 66380  53.1596 299.9469 0001888  96.7559 288.8357 15.39580895  5232"}}, "geometry": {"type": "Point", "coordinates": [-137.32957478299684, -52.04798079002627]}}, {"type": "Feature", "properties": {"norad_id": 66381, "name": "STARLINK-35158", "group": "last-30-days", "lat": -51.60180886480578, "lon": -134.4140827509756, "alt_km": 452.20332180885, "timestamp": "2025-12-05T22:40:47.340347+00:00", "meta": {"OBJECT_NAME": "STARLINK-35158", "OBJECT_ID": "2025-257B", "EPOCH": "2025-12-05T06:00:02.000160", "MEAN_MOTION": 15.39560488, "ECCENTRICITY": 7.29e-05, "INCLINATION": 53.1597, "RA_OF_ASC_NODE": 299.9427, "ARG_OF_PERICENTER": 88.9223, "MEAN_ANOMALY": 298.5365, "EPHEMERIS_TYPE": 0, "CLASSIFICATION_TYPE": "U", "NORAD_CAT_ID": 66381, "ELEMENT_SET_NO": 999, "REV_AT_EPOCH": 529, "BSTAR": 0.0028763487, "MEAN_MOTION_DOT": 0.00116193, "MEAN_MOTION_DDOT": 0}, "tle": {"line1": "1 66381U 25257B   25339.25002315  .00116193  00000+0  28763-2 0  9993", "line2": "2 66381  53.1597 299.9427 0000729  88.9223 298.5365 15.39560488  5291"}}, "geometry": {"type": "Point", "coordinates": [-134.4140827509756, -51.60180886480578]}}, {"type": "Feature", "properties": {"norad_id": 66382, "name": "STARLINK-35639", "group": "last-30-days", "lat": -40.662639114981545, "lon": -103.47300812971874, "alt_km": 451.9334144791601, "timestamp": "2025-12-05T22:40:47.340358+00:00", "meta": {"OBJECT_NAME": "STARLINK-35639", "OBJECT_ID": "2025-257C", "EPOCH": "2025-12-05T06:00:02.000160", "MEAN_MOTION": 15.3957936, "ECCENTRICITY": 0.00012096, "INCLINATION": 53.1602, "RA_OF_ASC_NODE": 299.8936, "ARG_OF_PERICENTER": 70.603, "MEAN_ANOMALY": 340.7784, "EPHEMERIS_TYPE": 0, "CLASSIFICATION_TYPE": "U", "NORAD_CAT_ID": 66382, "ELEMENT_SET_NO": 999, "REV_AT_EPOCH": 529, "BSTAR": 0.0019431638, "MEAN_MOTION_DOT": 0.0007802, "MEAN_MOTION_DDOT": 0}, "tle": {"line1": "1 66382U 25257C   25339.25002315  .00078020  00000+0  19432-2 0  9993", "line2": "2 66382  53.1602 299.8936 0001209  70.6030 340.7784 15.39579360  5295"}}, "geometry": {"type": "Point", "coordinates": [-103.47300812971874, -40.662639114981545]}}, {"type": "Feature", "properties": {"norad_id": 66383, "name": "STARLINK-35690", "group": "last-30-days", "lat": -22.676499572991787, "lon": -81.68823251106134, "alt_km": 450.42599403065924, "timestamp": "2025-12-05T22:40:47.340369+00:00", "meta": {"OBJECT_NAME": "STARLINK-35690", "OBJECT_ID": "2025-257D", "EPOCH": "2025-12-05T06:00:02.000160", "MEAN_MOTION": 15.39563176, "ECCENTRICITY": 0.00014907, "INCLINATION": 53.1607, "RA_OF_ASC_NODE": 299.8422, "ARG_OF_PERICENTER": 66.8172, "MEAN_ANOMALY": 10.3245, "EPHEMERIS_TYPE": 0, "CLASSIFICATION_TYPE": "U", "NORAD_CAT_ID": 66383, "ELEMENT_SET_NO": 999, "REV_AT_EPOCH": 529, "BSTAR": 0.0024774355, "MEAN_MOTION_DOT": 0.00099815, "MEAN_MOTION_DDOT": 0}, "tle": {"line1": "1 66383U 25257D   25339.25002315  .00099815  00000+0  24774-2 0  9994", "line2": "2 66383  53.1607 299.8422 0001490  66.8172  10.3245 15.39563176  5297"}}, "geometry": {"type": "Point", "coordinates": [-81.68823251106134, -22.676499572991787]}}, {"type": "Feature", "properties": {"norad_id": 66384, "name": "STARLINK-35662", "group": "last-30-days", "lat": -21.27720830498192, "lon": -80.41073635459541, "alt_km": 450.73092573832764, "timestamp": "2025-12-05T22:40:47.340378+00:00", "meta": {"OBJECT_NAME": "STARLINK-35662", "OBJECT_ID": "2025-257E", "EPOCH": "2025-12-05T06:00:02.000160", "MEAN_MOTION": 15.39573256, "ECCENTRICITY": 0.00016385, "INCLINATION": 53.161, "RA_OF_ASC_NODE": 299.8395, "ARG_OF_PERICENTER": 91.6158, "MEAN_ANOMALY": 347.3413, "EPHEMERIS_TYPE": 0, "CLASSIFICATION_TYPE": "U", "NORAD_CAT_ID": 66384, "ELEMENT_SET_NO": 999, "REV_AT_EPOCH": 529, "BSTAR": 0.002404948, "MEAN_MOTION_DOT": 0.00096878, "MEAN_MOTION_DDOT": 0}, "tle": {"line1": "1 66384U 25257E   25339.25002315  .00096878  00000+0  24049-2 0  9996", "line2": "2 66384  53.1610 299.8395 0001638  91.6158 347.3413 15.39573256  5295"}}, "geometry": {"type": "Point", "coordinates": [-80.41073635459541, -21.27720830498192]}}, {"type": "Feature", "properties": {"norad_id": 66385, "name": "STARLINK-35659", "group": "last-30-days", "lat": -39.53621988150371, "lon": -101.61378064712507, "alt_km": 451.9981393411326, "timestamp": "2025-12-05T22:40:47.340391+00:00", "meta": {"OBJECT_NAME": "STARLINK-35659", "OBJECT_ID": "2025-257F", "EPOCH": "2025-12-05T06:00:02.000160", "MEAN_MOTION": 15.39575896, "ECCENTRICITY": 0.00010991, "INCLINATION": 53.1604, "RA_OF_ASC_NODE": 299.8908, "ARG_OF_PERICENTER": 86.6579, "MEAN_ANOMALY": 326.5538, "EPHEMERIS_TYPE": 0, "CLASSIFICATION_TYPE": "U", "NORAD_CAT_ID": 66385, "ELEMENT_SET_NO": 999, "REV_AT_EPOCH": 529, "BSTAR": 0.0018524877, "MEAN_MOTION_DOT": 0.00074315, "MEAN_MOTION_DDOT": 0}, "tle": {"line1": "1 66385U 25257F   25339.25002315  .00074315  00000+0  18525-2 0  9991", "line2": "2 66385  53.1604 299.8908 0001099  86.6579 326.5538 15.39575896  5290"}}, "geometry": {"type": "Point", "coordinates": [-101.61378064712507, -39.53621988150371]}}, {"type": "Feature", "properties": {"norad_id": 66386, "name": "STARLINK-35651", "group": "last-30-days", "lat": -2.4230134888255943, "lon": -65.30235108445524, "alt_km": 448.3195292559594, "timestamp": "2025-12-05T22:40:47.340401+00:00", "meta": {"OBJECT_NAME": "STARLINK-35651", "OBJECT_ID": "2025-257G", "EPOCH": "2025-12-05T06:00:02.000160", "MEAN_MOTION": 15.39565316, "ECCENTRICITY": 0.00018531, "INCLINATION": 53.1608, "RA_OF_ASC_NODE": 299.7912, "ARG_OF_PERICENTER": 92.8149, "MEAN_ANOMALY": 10.0911, "EPHEMERIS_TYPE": 0, "CLASSIFICATION_TYPE": "U", "NORAD_CAT_ID": 66386, "ELEMENT_SET_NO": 999, "REV_AT_EPOCH": 529, "BSTAR": 0.0027681056, "MEAN_MOTION_DOT": 0.00111758, "MEAN_MOTION_DDOT": 0}, "tle": {"line1": "1 66386U 25257G   25339.25002315  .00111758  00000+0  27681-2 0  9998", "line2": "2 66386  53.1608 299.7912 0001853  92.8149  10.0911 15.39565316  5295"}}, "geometry": {"type": "Point", "coordinates": [-65.30235108445524, -2.4230134888255943]}}]}